O3B FM5                 
1 39188U 13031A   26065.49628795 -.00000026  00000+0  00000+0 0  9993
2 39188   0.0980  13.4545 0003331 322.6467  23.8782  5.00116473231890
O3B FM4                 
1 39189U 13031B   26065.21566536 -.00000026  00000+0  00000+0 0  9998
2 39189   0.0553 345.1172 0005086   9.2557   5.6159  5.00115247231899
O3B FM2                 
1 39190U 13031C   26065.28134640 -.00000026  00000+0  00000+0 0  9994
2 39190   0.0562 338.9068 0002828   5.1857  15.8932  5.00116014231967
O3B PFM                 
1 39191U 13031D   26065.09556941 -.00000026  00000+0  00000+0 0  9996
2 39191   0.0668   7.2787 0005147 352.3292   0.3862  5.00115906231517
O3B FM3                 
1 40079U 14038A   26065.76186379 -.00000026  00000+0  00000+0 0  9999
2 40079   0.0530 353.4216 0000655  58.0051 308.5741  5.00115651207910
O3B FM7                 
1 40080U 14038B   26061.31035470 -.00000029  00000+0  00000+0 0  9996
2 40080   0.0588 348.9474 0004488 339.4059  31.6123  5.00115622212532
O3B FM6                 
1 40081U 14038C   26065.73495754 -.00000026  00000+0  00000+0 0  9999
2 40081   0.0549 351.2792 0002664 351.0679  17.6384  5.00115757212703
O3B FM8                 
1 40082U 14038D   26063.58947926 -.00000027  00000+0  00000+0 0  9995
2 40082   0.0558 350.6431 0002658 354.8269  14.5160  5.00115977212719
O3B FM10                
1 40348U 14083A   26065.41555366 -.00000026  00000+0  00000+0 0  9996
2 40348   0.0432 347.6769 0002684 356.1142  16.1950  5.00115244204756
O3B FM11                
1 40349U 14083B   26065.42827486 -.00000026  00000+0  00000+0 0  9993
2 40349   0.0568   0.4452 0003126 333.7457  25.7882  5.00115618204779
O3B FM12                
1 40350U 14083C   26062.45701119 -.00000028  00000+0  00000+0 0  9991
2 40350   0.0560 359.7796 0002643 337.6957  22.5061  5.00115945204637
O3B FM9                 
1 40351U 14083D   26065.28230790 -.00000026  00000+0  00000+0 0  9996
2 40351   0.0579   0.7111 0002732 343.1272  16.1476  5.00115923204920
LEO 1 (LEO VANTAGE 1)   
1 43113U 18004C   26065.77390384  .00005931  00000+0  41094-3 0  9993
2 43113  99.2481 330.7154 0353186  33.8286 328.4910 14.67149792422461
O3B FM15                
1 43231U 18024A   26065.34907129 -.00000026  00000+0  00000+0 0  9999
2 43231   0.0486   0.8743 0002689 340.1748  18.9355  5.00115720145885
O3B FM16                
1 43232U 18024B   26065.20155549 -.00000026  00000+0  00000+0 0  9996
2 43232   0.0450   2.8168 0002827 339.2721  17.8957  5.00115882145799
O3B FM14                
1 43233U 18024C   26065.44220010 -.00000026  00000+0  00000+0 0  9999
2 43233   0.0435   1.7685 0002846 344.1171  14.1012  5.00115673145802
O3B FM13                
1 43234U 18024D   26062.10991137 -.00000028  00000+0  00000+0 0  9997
2 43234   0.0485 331.6373 0004295 331.6147  56.6997  5.00115687145742
